attn,street1,street2,city,state,postal_code,country
Common green iguana,32484 Shelley Court,,Vienna,VA,,US
Numbat,05 Buena Vista Lane,,Atlanta,GA,30386,US
Bottle-nose dolphin,8295 Express Drive,46433 Westerfield Court,Long Beach,CA,90840,US
"Heron, giant",88 Messerschmidt Junction,23386 Carey Trail,Memphis,TN,38126,US
"Lemur, ring-tailed",91 Lotheville Court,,Cape Coral,FL,33915,US
"Vulture, bengal",5 Sage Alley,38 Dixon Trail,Evansville,IN,47747,US
"Skua, great",8 Hermina Avenue,,Irvine,CA,92619,US
Argalis,2026 Monica Center,90 Northview Point,Springfield,VA,22156,US
Indian tree pie,976 Buhler Hill,,Oceanside,CA,92056,US
"Bison, american",21413 Thackeray Park,,Riverside,CA,,US
"Gull, silver",68 Birchwood Park,,Alexandria,VA,22301,US
,4924 Forest Junction,,Grand Rapids,MI,49544,US
Gila monster,01638 Holy Cross Terrace,,Shreveport,LA,71161,US
"Tamandua, southern",96 Ridgeview Junction,,Canton,OH,44710,US
Chameleon (unidentified),8 Barby Street,,New York City,NY,10125,US
Red-tailed phascogale,75 Stoughton Crossing,62 Welch Lane,Knoxville,TN,,US
South American sea lion,64 Fisk Street,11 Lakewood Junction,Baton Rouge,LA,70883,US
"Mongoose, yellow",18 Waxwing Drive,,Pasadena,TX,77505,US
,19 Lighthouse Bay Avenue,,Omaha,NE,68124,US
"Jackal, silver-backed",3029 Corben Way,572 Memorial Plaza,Santa Fe,NM,87505,US
Frilled dragon,381 Waxwing Way,,Austin,TX,78789,US
"Chickadee, black-capped",680 Lien Terrace,3434 Lindbergh Center,Fort Worth,TX,76129,US
Baleen whale,542 Mallory Trail,,New Castle,PA,16107,US
African lynx,76075 Nobel Center,,Tacoma,WA,98411,US
"Pintail, bahama",4 Elgar Avenue,,Houston,TX,77085,US
"Oystercatcher, blackish",21118 Tomscot Alley,17346 Morrow Junction,San Jose,CA,95173,US
Greater blue-eared starling,60 Burning Wood Court,63 Lukken Alley,South Lake Tahoe,CA,96154,US
Desert tortoise,72660 Randy Parkway,,Fort Lauderdale,FL,33305,US
Woylie,13 Westerfield Street,3059 Porter Avenue,Tacoma,WA,98424,US
,839 Manufacturers Center,,Laurel,MD,20709,US
"Magpie, australian",1294 Kedzie Trail,01031 Waxwing Trail,Montgomery,AL,36134,US
,5132 Tomscot Center,9 Upham Drive,Albuquerque,NM,87140,US
"Devil, tasmanian",4599 Center Avenue,874 Ryan Crossing,Riverside,CA,92513,US
,8 Prairieview Place,,Los Angeles,CA,90087,US
"Otter, canadian river",912 Karstens Center,,Buffalo,NY,14233,US
Hudsonian godwit,4 Troy Center,,New Orleans,LA,70124,US
"Toucan, red-billed",10112 Corry Trail,,Norwalk,CT,06859,US
"Anteater, giant",7 Norway Maple Trail,,West Palm Beach,FL,33405,US
Sulfur-crested cockatoo,92 Summit Hill,21606 Dakota Drive,San Francisco,CA,94177,US
Gray rhea,583 Burrows Crossing,,Houston,TX,77206,US
"Duck, blue",9124 Green Court,,Philadelphia,PA,19146,US
Western palm tanager (unidentified),3 Arapahoe Junction,,Albany,NY,12227,US
,09 Little Fleur Pass,8521 Ronald Regan Junction,Los Angeles,CA,90040,US
"Deer, barasingha",4682 Vera Drive,,Charlotte,NC,28299,US
"Flamingo, roseat",81822 Sloan Avenue,855 Eliot Court,San Jose,CA,95128,US
Javanese cormorant,425 Bashford Parkway,,Boston,MA,,US
Tailless tenrec,551 La Follette Court,4711 Chinook Alley,Shawnee Mission,KS,66220,US
Asian elephant,72 Rusk Street,,Reno,NV,89510,US
Thirteen-lined squirrel,7215 Harbort Circle,,Grand Forks,ND,58207,US
"Mongoose, banded",9 Old Shore Court,,Tampa,FL,33694,US
"Possum, ring-tailed",82305 Lindbergh Drive,,Philadelphia,PA,19104,US
Woolly-necked stork,1213 Northview Lane,,Lexington,KY,40546,US
Yellow-bellied marmot,5 4th Way,1 Melvin Junction,Phoenix,AZ,85067,US
"Phalarope, grey",100 Nevada Drive,,Washington,DC,20067,US
"Hoopoe, eurasian",1 Browning Lane,,Pinellas Park,FL,34665,US
Black rhinoceros,372 Mcguire Parkway,,Corpus Christi,TX,78465,US
Asiatic jackal,1 Lawn Hill,,Saint Joseph,MO,64504,US
"Whale, long-finned pilot",64 Florence Terrace,,Garland,TX,75049,US
Guerza,308 Del Sol Drive,,Washington,DC,20380,US
,4154 1st Hill,,Miami,FL,33158,US
Ringtail cat,751 Buhler Trail,,Rochester,NY,14604,US
"Baboon, savanna",08 Donald Point,,Austin,TX,,US
"Goose, andean",3332 Holy Cross Crossing,88986 Glacier Hill Hill,Albany,NY,12237,US
Kori bustard,762 Green Ridge Terrace,,Boulder,CO,80310,US
"Crake, african black",872 Elmside Pass,,Roanoke,VA,24040,US
"Zebra, plains",50489 Calypso Center,1217 Armistice Circle,Johnstown,PA,15906,US
"Crane, sarus",1 Scofield Hill,,Corpus Christi,TX,,US
"Goat, mountain",111 Fordem Trail,,Seattle,WA,98127,US
Red-winged blackbird,6 6th Hill,,Corona,CA,92878,US
"Puma, south american",8 Westend Crossing,,Columbus,OH,43210,US
Southern right whale,15 Moose Park,,Washington,DC,20051,US
Wild turkey,42493 Porter Avenue,,Baton Rouge,LA,70883,US
Southern ground hornbill,57 Grasskamp Hill,,Greensboro,NC,27425,US
Canadian tiger swallowtail butterfly,3796 Coolidge Crossing,,Oklahoma City,OK,73173,US
Fork-tailed drongo,4 Hanson Pass,,Salt Lake City,UT,84105,US
Red-breasted cockatoo,825 Bobwhite Point,3 Badeau Hill,Dulles,VA,20189,US
White-necked raven,05 Derek Crossing,1 Brentwood Trail,Fort Lauderdale,FL,,US
"Antelope, roan",390 Swallow Junction,8819 Columbus Place,Spokane,WA,99260,US
,83938 Nobel Alley,,Atlanta,GA,30380,US
"Skunk, western spotted",891 Luster Plaza,76 Schurz Street,Akron,OH,,US
"Egret, great",0 7th Park,,New Orleans,LA,70149,US
European badger,58771 Fordem Pass,,Johnson City,TN,37605,US
"Camel, dromedary",2 Bowman Road,9 Westport Plaza,Alexandria,VA,22309,US
Canada goose,3782 Esch Hill,,Springfield,MA,,US
"Squirrel, arctic ground",24641 Michigan Crossing,,Dallas,TX,75251,US
,13 Gina Center,,Danbury,CT,06816,US
"Wagtail, african pied",53458 Westend Street,,Odessa,TX,79769,US
,47 Golf Point,,Dayton,OH,45403,US
House crow,595 Golf View Alley,1113 Manufacturers Hill,Las Vegas,NV,89150,US
,7 Bayside Place,,Whittier,CA,90610,US
,2 Chinook Junction,,Fort Wayne,IN,46896,US
"Goose, knob-nosed",576 Prentice Way,694 Bunting Lane,Houston,TX,77299,US
,24979 Surrey Hill,,Minneapolis,MN,55480,US
"Dove, white-winged",1 Macpherson Alley,122 Grover Point,Colorado Springs,CO,80925,US
Worm snake (unidentified),45671 Basil Road,,Tampa,FL,33647,US
,1 Straubel Road,8750 Burrows Hill,Washington,DC,20535,US
"Whale, southern right",8738 Rutledge Drive,,Concord,CA,94522,US
Mandras tree shrew,2 Longview Way,435 Lawn Avenue,Vero Beach,FL,32969,US
Red-winged blackbird,50 Hansons Plaza,5 Anhalt Alley,New Haven,CT,06533,US
,5 Glacier Hill Point,,El Paso,TX,88553,US
"Spurfowl, yellow-necked",85 Northview Parkway,,Lexington,KY,40515,US
Blue-tongued lizard,15 Ludington Point,95 Village Pass,Alexandria,VA,22333,US
Wild boar,9 Ryan Pass,,Dallas,TX,75226,US
"Cobra, egyptian",5241 Bay Circle,,Columbia,SC,29225,US
"Dove, mourning collared",3358 Sutteridge Place,,Charlotte,NC,28247,US
American Virginia opossum,9797 Orin Point,,Juneau,AK,99812,US
Southern hairy-nosed wombat,34 Darwin Way,,Lincoln,NE,68531,US
South African hedgehog,5 Summerview Place,262 Comanche Way,Jacksonville,FL,32277,US
"Blackbird, red-winged",0 3rd Plaza,879 Pine View Crossing,Simi Valley,CA,93094,US
,758 Muir Place,9 Hallows Avenue,Washington,DC,20029,US
"Starling, cape",1439 Scofield Pass,210 Lillian Place,Atlanta,GA,30358,US
,590 Granby Circle,,Fort Lauderdale,FL,33310,US
"Hawk-eagle, crowned",24821 Evergreen Place,,El Paso,TX,88519,US
,55618 Alpine Pass,496 Forster Drive,Dallas,TX,75287,US
"Lemur, brown",3 Becker Crossing,,Little Rock,AR,72204,US
Hudsonian godwit,18 Fremont Circle,,Omaha,NE,68117,US
Sandhill crane,59 Burning Wood Court,,San Diego,CA,92191,US
,096 Grim Hill,,Bloomington,IL,61709,US
"Lion, african",97 Scofield Way,,Louisville,KY,40287,US
"Ibis, sacred",959 Westridge Drive,,Birmingham,AL,35220,US
Four-spotted skimmer,3707 Kedzie Circle,,Hyattsville,MD,20784,US
Yak,57884 Union Junction,,Richmond,VA,23285,US
California sea lion,9 Pankratz Center,812 Crowley Avenue,New Haven,CT,06538,US
Cobra (unidentified),5308 Helena Court,,Manchester,NH,03105,US
Sun gazer,122 Novick Parkway,,Fresno,CA,93778,US
"Cockatoo, red-breasted",73995 Heath Park,,Fort Lauderdale,FL,33336,US
"Boa, mexican",282 Arrowood Place,,Kansas City,MO,64144,US
Jungle kangaroo,6841 Farmco Lane,5 Dorton Junction,Knoxville,TN,37924,US
"Grenadier, purple",7 Rigney Place,44777 Coolidge Place,Gatesville,TX,76598,US
"Kiskadee, great",8163 Lotheville Parkway,,Bronx,NY,10469,US
"Lion, southern sea",94032 Schmedeman Hill,,Jackson,MS,39216,US
"Ibis, glossy",9699 Westerfield Plaza,27953 Eastlawn Street,Springfield,MA,01105,US
"Eagle, white-bellied sea",44 Bunker Hill Lane,4940 Blackbird Terrace,Lafayette,IN,47905,US
Hippopotamus,2696 Lyons Crossing,1944 Bartillon Parkway,Fresno,CA,93778,US
"Baboon, gelada",66 Anderson Place,,Colorado Springs,CO,80910,US
European badger,02 Sunbrook Way,98567 Hazelcrest Place,Dallas,TX,75397,US
Roe deer,92 Summit Point,,Springfield,IL,62711,US
Red phalarope,784 Veith Drive,,Washington,DC,20062,US
,48793 Waywood Plaza,44 Bluestem Point,Colorado Springs,CO,80910,US
Canadian tiger swallowtail butterfly,55 Holmberg Plaza,70281 Del Mar Park,Lubbock,TX,79405,US
Superb starling,33377 Nevada Lane,,Maple Plain,MN,55572,US
"Screamer, crested",35 Chinook Pass,7 Canary Circle,Huntington,WV,25716,US
"Flamingo, lesser",242 Steensland Crossing,,Las Vegas,NV,,US
Northern phalarope,5268 Mcbride Crossing,,Santa Fe,NM,87505,US
,5452 Sunnyside Hill,04916 Elmside Park,Lexington,KY,,US
"Hawk-eagle, crowned",0 Straubel Plaza,396 Lindbergh Circle,Rochester,NY,14652,US
"Dragon, western bearded",24398 Elmside Court,,Trenton,NJ,08619,US
Brazilian otter,5139 7th Avenue,,Corpus Christi,TX,78426,US
"Vulture, white-rumped",49 Huxley Crossing,58515 Eliot Road,Saint Louis,MO,63143,US
Crested barbet,0828 Leroy Alley,,Washington,DC,20397,US
Yak,51143 Talmadge Drive,,Garden Grove,CA,92844,US
"Plover, three-banded",6773 Sommers Place,,Herndon,VA,22070,US
"Sparrow, rufous-collared",28 Almo Circle,29 Jackson Terrace,Wilkes Barre,PA,18763,US
"Goose, greylag",7 Northview Lane,,Reno,NV,89510,US
"Lion, steller's sea",7029 Blue Bill Park Park,,West Palm Beach,FL,33416,US
Black-backed magpie,5315 Delladonna Crossing,,Oxnard,CA,93034,US
Slender loris,6592 Walton Center,,Santa Ana,CA,92725,US
"Hornbill, southern ground",1194 International Crossing,,Reading,PA,19610,US
Western patch-nosed snake,24 Judy Court,9 Pearson Court,Green Bay,WI,54313,US
Short-nosed bandicoot,4 Lindbergh Point,239 Northland Center,Kansas City,MO,64179,US
Sloth bear,678 Spaight Park,2 Crest Line Hill,Paterson,NJ,07522,US
African ground squirrel (unidentified),5 Center Plaza,,Warren,OH,44485,US
"Otter, small-clawed",745 Forest Hill,,Akron,OH,44310,US
,03376 Hauk Place,,Ann Arbor,MI,,US
Margay,07652 Haas Way,,New York City,NY,10184,US
,77 Cody Lane,,Ogden,UT,84409,US
"Ibis, glossy",730 Golf View Lane,659 Calypso Alley,Mobile,AL,36670,US
"Fox, pampa gray",3512 Almo Avenue,,Orange,CA,92867,US
Superb starling,28758 Garrison Way,0 Aberg Plaza,Decatur,IL,62525,US
Zorilla,27642 West Lane,,Philadelphia,PA,19196,US
Prairie falcon,78434 Kingsford Alley,6108 Glendale Drive,Minneapolis,MN,,US
,81 Weeping Birch Plaza,,Peoria,IL,61640,US
Palm squirrel,65 Blackbird Avenue,,Arlington,TX,76016,US
,78549 Ronald Regan Way,,Mesa,AZ,85215,US
"Wallaby, tammar",918 Bowman Pass,,Prescott,AZ,86305,US
Galapagos sea lion,32 Sachtjen Way,6889 Elgar Parkway,Austin,TX,78726,US
"Boa, mexican",6503 Morrow Center,356 Moulton Center,Honolulu,HI,96820,US
Collared peccary,146 Birchwood Drive,,Alhambra,CA,91841,US
Greater flamingo,5 Cordelia Terrace,753 Sutteridge Crossing,Fort Worth,TX,76105,US
,0922 Lukken Court,,Stockton,CA,95205,US
,3 Dixon Road,86 Mallard Point,Bismarck,ND,58505,US
"Jackal, asiatic",728 Holmberg Parkway,,Corpus Christi,TX,78410,US
Boat-billed heron,49 Morningstar Circle,,Macon,GA,31210,US
Pacific gull,530 Marcy Avenue,38 2nd Point,Evansville,IN,,US
"Owl, great horned",20 Hallows Parkway,,Huntington,WV,25726,US
,971 Caliangt Road,,San Jose,CA,95123,US
,5 Evergreen Parkway,,Mobile,AL,36616,US
Asian foreset tortoise,775 School Court,,El Paso,TX,88530,US
,0 Burrows Junction,,Pittsburgh,PA,15210,US
"Godwit, hudsonian",2120 Reindahl Way,,Boston,MA,02203,US
Burchell's gonolek,45008 Westend Junction,9130 Troy Crossing,Washington,DC,20540,US
Toddy cat,32559 Hauk Circle,,Boston,MA,02216,US
"Hawk-eagle, crowned",269 Loomis Park,398 Farmco Crossing,Juneau,AK,,US
Lesser masked weaver,826 Brentwood Drive,39307 Clove Court,Fort Lauderdale,FL,33355,US
"Squirrel, golden-mantled ground",134 Sommers Drive,,El Paso,TX,88535,US
,119 Anthes Point,,Charleston,WV,25305,US
Little cormorant,908 Debra Street,,Durham,NC,27717,US
"Colobus, black and white",3 Mallard Park,,Dayton,OH,45490,US
"Creeper, black-tailed tree",28921 Lakewood Road,,Austin,TX,,US
,82441 Caliangt Hill,,Las Vegas,NV,89155,US
"Eagle, pallas's fish",38632 Ronald Regan Plaza,,Littleton,CO,80126,US
Dromedary camel,9 Hoard Parkway,,Salt Lake City,UT,84125,US
"Squirrel, palm",7625 Texas Plaza,,San Jose,CA,95173,US
Swainson's francolin,048 Steensland Drive,,Wichita,KS,67230,US
"Elephant, african",1902 Thompson Center,64 Eggendart Street,Birmingham,AL,35220,US
Egyptian goose,4 Summit Pass,,Merrifield,VA,22119,US
"Dove, emerald-spotted wood",3 Chive Street,,Washington,DC,20551,US
"Gull, southern black-backed",57088 Dennis Parkway,,Lexington,KY,40524,US
Indian jackal,40528 Warbler Parkway,61 Parkside Lane,Florence,SC,29505,US
Blue and yellow macaw,641 Thompson Place,,Portland,OR,97240,US
"Cat, cape wild",4241 Sommers Point,,San Francisco,CA,94159,US
"Deer, white-tailed",2 Morningstar Hill,8030 Golf Street,Van Nuys,CA,91406,US
"Bustard, kori",6 Fieldstone Court,,Fort Lauderdale,FL,33355,US
Cougar,9 Mayfield Circle,,Evansville,IN,47725,US
"Waterbuck, common",0918 Golden Leaf Junction,01726 Stone Corner Circle,Orange,CA,92862,US
"Sandpiper, spotted wood",02796 Dwight Junction,08119 Fieldstone Lane,Denver,CO,80255,US
"Stork, openbill",4 Donald Court,82302 Twin Pines Drive,Charleston,WV,25331,US
"Weaver, lesser masked",6 Menomonie Way,,Amarillo,TX,79188,US
Green-winged macaw,67102 Messerschmidt Crossing,,Eugene,OR,97405,US
Eastern quoll,60 Boyd Junction,017 Hermina Junction,Honolulu,HI,96820,US
"Buffalo, african",6 Grover Hill,,Van Nuys,CA,91499,US
,78105 Dapin Trail,,Detroit,MI,48295,US
"Heron, grey",801 Delaware Terrace,,Port Saint Lucie,FL,34985,US
"Skimmer, four-spotted",055 Service Pass,,Anaheim,CA,92805,US
Palm squirrel,153 Rowland Point,,Fort Myers,FL,33994,US
"Bat, madagascar fruit",193 Farmco Park,60989 Dryden Court,Bakersfield,CA,93381,US
Chilean flamingo,87829 Bellgrove Parkway,8 Wayridge Crossing,Detroit,MI,48275,US
"Duck, comb",9 Jay Avenue,98 Chive Place,San Antonio,TX,78215,US
"Crow, pied",3538 Troy Park,,Oklahoma City,OK,73109,US
Indian mynah,26 Manufacturers Street,,Torrance,CA,90510,US
Cape Barren goose,81432 Shopko Junction,,Charlotte,NC,28284,US
,20 Hayes Place,,Corpus Christi,TX,78465,US
"Shelduck, european",140 Memorial Road,,Louisville,KY,40256,US
,7 Blue Bill Park Terrace,,New Haven,CT,06533,US
Common genet,27 Arapahoe Alley,,Washington,DC,20215,US
Western pygmy possum,960 Northwestern Hill,,Portsmouth,NH,03804,US
"Heron, gray",093 Dawn Road,,Las Vegas,NV,89125,US
Dassie,872 Melody Circle,,Stockton,CA,95210,US
"Raven, cape",1 Killdeer Center,502 Hovde Plaza,Omaha,NE,68144,US
African snake (unidentified),63 Hazelcrest Terrace,,Tuscaloosa,AL,35487,US
"Hyena, spotted",7 Cody Street,2 6th Plaza,Saint Petersburg,FL,33715,US
,3570 Oakridge Place,53030 Dryden Plaza,Abilene,TX,79699,US
"Vulture, egyptian",4917 Darwin Pass,5586 Bowman Place,New York City,NY,10175,US
Black-fronted bulbul,184 Bayside Place,,San Jose,CA,95150,US
,00825 3rd Crossing,6657 Bowman Pass,Dallas,TX,,US
"Wallaby, dama",55258 Oxford Circle,576 Kensington Point,Charlotte,NC,28210,US
Jungle kangaroo,703 Sutteridge Avenue,,Ventura,CA,,US
White-browed sparrow weaver,3 Nobel Lane,,Raleigh,NC,27615,US
,79709 Sloan Way,,Marietta,GA,30066,US
Snowy egret,78 Hollow Ridge Parkway,,Alexandria,VA,22333,US
,4 Garrison Circle,,Metairie,LA,70005,US
Long-nosed bandicoot,2621 Jana Center,,San Diego,CA,92170,US
Mouflon,1 Ramsey Court,,Washington,DC,20599,US
Ring-necked pheasant,851 Declaration Court,47726 Sundown Lane,Norfolk,VA,23551,US
"Boar, wild",11 Sutherland Trail,,Naples,FL,34114,US
Denham's bustard,81649 Roxbury Lane,,Dallas,TX,75236,US
"Monkey, vervet",856 Spohn Terrace,,Olympia,WA,98516,US
"Seal, southern elephant",07 Sutherland Street,,Oakland,CA,94622,US
Squirrel glider,79 Roth Alley,325 Annamark Place,Atlanta,GA,30386,US
"Hyena, spotted",6839 East Drive,550 4th Circle,San Bernardino,CA,92405,US
Steller sea lion,1 Atwood Road,57 Claremont Circle,Phoenix,AZ,85025,US
American racer,87399 Mayer Trail,,Clearwater,FL,34620,US
Wild water buffalo,47 Lerdahl Circle,,Miami,FL,33111,US
"Cormorant, javanese",28 Hooker Place,,Birmingham,AL,35205,US
Blue catfish,5382 Hoffman Circle,,Charlotte,NC,28215,US
"Raven, white-necked",6927 4th Way,,Glendale,CA,91210,US
"Monitor, white-throated",071 Twin Pines Way,31 Meadow Valley Trail,Orlando,FL,32825,US
,774 Warner Junction,1 Manufacturers Hill,Mountain View,CA,94042,US
"Lark, horned",8 Pierstorff Pass,,Dallas,TX,75323,US
Common rhea,571 Meadow Valley Trail,7 Wayridge Crossing,Philadelphia,PA,19120,US
"Phalarope, red",60876 Hanson Lane,,Baltimore,MD,21281,US
Common raccoon,970 Oneill Crossing,476 Elka Point,Long Beach,CA,90840,US
Blue racer,4 Novick Lane,,Hialeah,FL,33013,US
Paradoxure,4871 Crescent Oaks Alley,,Miami,FL,33169,US
Painted stork,894 Norway Maple Way,8 Kipling Court,Salt Lake City,UT,84140,US
"Goat, mountain",08180 Hoffman Drive,18 Morning Point,Atlanta,GA,30336,US
Klipspringer,3 International Court,,Melbourne,FL,32919,US
Greater flamingo,939 Dexter Pass,51 Bashford Pass,Albuquerque,NM,87121,US
Kalahari scrub robin,4 Iowa Trail,,Anaheim,CA,92805,US
Butterfly (unidentified),755 Old Shore Parkway,510 Magdeline Circle,Huntsville,AL,35895,US
"Duiker, common",7861 Lotheville Court,,Anchorage,AK,99512,US
Racer snake,61770 Kropf Parkway,,Los Angeles,CA,90035,US
Purple grenadier,77451 Straubel Street,00 Nevada Drive,Worcester,MA,01654,US
Galapagos dove,087 Roth Lane,7012 Sunnyside Trail,Elmira,NY,14905,US
Egyptian goose,20348 Derek Lane,,Charleston,SC,29411,US
"Heron, green-backed",4 Lindbergh Center,,Austin,TX,78759,US
,1515 Killdeer Road,,Dayton,OH,45414,US
Anaconda (unidentified),6944 Goodland Plaza,,Sioux Falls,SD,57198,US
"Antelope, roan",728 Burning Wood Terrace,91073 Bowman Street,Arlington,VA,22217,US
Dingo,794 Morrow Lane,,Sacramento,CA,95852,US
"Gull, southern black-backed",0798 Coolidge Drive,,Bronx,NY,10464,US
"Bird, magnificent frigate",3561 Redwing Lane,89612 Atwood Circle,Boston,MA,02163,US
"Teal, hottentot",43661 Gale Junction,647 Quincy Avenue,Springfield,IL,62794,US
,16776 Dwight Terrace,8 Anzinger Drive,Houston,TX,77271,US
Blue peacock,2490 Vera Hill,,Charleston,WV,25336,US
"Gull, lava",141 Park Meadow Lane,9631 Shopko Junction,Asheville,NC,28805,US
White-necked stork,596 Menomonie Lane,,San Bernardino,CA,92415,US
"Beaver, european",50 Lyons Terrace,,Dallas,TX,,US
"Seal, northern fur",3336 Sunbrook Pass,,Tacoma,WA,98405,US
"Flicker, campo",83421 Shelley Center,,Louisville,KY,40250,US
,8 Shopko Parkway,,Saint Augustine,FL,,US
Oribi,526 Bunting Terrace,98752 Aberg Alley,Macon,GA,31210,US
,903 8th Plaza,38840 Bonner Crossing,Iowa City,IA,52245,US
Secretary bird,672 Sullivan Terrace,,Richmond,VA,23220,US
"Squirrel, palm",061 Stang Street,6508 Grasskamp Crossing,Portland,OR,97206,US
"Barbet, crested",15 Michigan Plaza,,San Diego,CA,92196,US
Brown lemur,3989 Oxford Circle,617 Hansons Way,Killeen,TX,76544,US
"Genet, common",8213 Boyd Road,06 Manley Place,Atlanta,GA,31136,US
African red-eyed bulbul,8 Larry Parkway,,Winston Salem,NC,,US
"Nighthawk, common",51 Rusk Plaza,,Charlotte,NC,28242,US
"Lion, asian",894 Charing Cross Hill,,Tacoma,WA,98405,US
"Wallaby, whip-tailed",854 4th Road,74951 Del Sol Plaza,Lynchburg,VA,24503,US
,22 Gerald Place,85654 Cambridge Avenue,Pittsburgh,PA,15225,US
"Mongoose, yellow",5 Washington Terrace,,Washington,DC,20010,US
Black-collared barbet,45 Hagan Hill,,Memphis,TN,,US
Blue-tongued skink,8285 Elgar Court,977 Packers Trail,Pasadena,CA,91199,US
Fat-tailed dunnart,1 Blackbird Circle,75850 Schmedeman Lane,Dallas,TX,75277,US
Paddy heron (unidentified),0289 Springview Trail,,Loretto,MN,55598,US
Timber wolf,29104 Dawn Junction,,New Orleans,LA,70129,US
African elephant,35379 Schiller Drive,,Richmond,VA,23293,US
"Tortoise, radiated",41 Bluejay Pass,,Tacoma,WA,98424,US
"Goldeneye, common",79 Grasskamp Avenue,,Saint Paul,MN,55108,US
Slender loris,415 Meadow Ridge Lane,57235 Kipling Way,Aurora,CO,80015,US
Snowy sheathbill,25370 Scofield Pass,,Sacramento,CA,95838,US
"Cardinal, black-throated",27265 Bonner Alley,,Miami,FL,33134,US
Black-fronted bulbul,50 Tennessee Alley,,Hartford,CT,06152,US
Red-breasted cockatoo,05 Kingsford Center,38 Kipling Terrace,Monroe,LA,71208,US
"Squirrel, antelope ground",2 Spaight Street,,Brooklyn,NY,,US
"Rattlesnake, horned",7401 Fair Oaks Center,,Brooklyn,NY,11210,US
Common nighthawk,33933 Delaware Crossing,9861 Ridgeview Junction,Greensboro,NC,27455,US
"Vulture, black",56586 Memorial Terrace,63 Transport Alley,Arlington,VA,22212,US
"Dove, rock",46 Morrow Point,,Lincoln,NE,68524,US
"Barbet, black-collared",90762 Westport Junction,6 Surrey Park,New York City,NY,10019,US
White-tailed jackrabbit,35 Caliangt Center,,Ashburn,VA,22093,US
"Stork, woolly-necked",7 Shasta Pass,,Manassas,VA,22111,US
,81 Paget Park,2 Eagan Terrace,Fresno,CA,93726,US
"Stork, white-necked",51 Goodland Hill,,Trenton,NJ,08650,US
"Trumpeter, green-winged",4 Mcbride Alley,,Scranton,PA,18505,US
"Heron, little",1 Fordem Lane,4546 Oxford Circle,Topeka,KS,66622,US
Seven-banded armadillo,86944 Granby Trail,,El Paso,TX,79940,US
,462 Delaware Circle,,Milwaukee,WI,53234,US
"Lizard, frilled",6 Cottonwood Court,67 Schlimgen Hill,Shawnee Mission,KS,,US
Blue-footed booby,055 Cordelia Way,,Jamaica,NY,,US
"Cardinal, red-capped",9 Hauk Pass,,Saint Louis,MO,63143,US
Palm squirrel,25 Crowley Hill,,Newport Beach,CA,,US
American bighorn sheep,440 Texas Avenue,,Jefferson City,MO,65110,US
"Vulture, white-rumped",625 Sunfield Hill,,Grand Rapids,MI,49505,US
,58706 Bayside Terrace,392 Nancy Crossing,San Diego,CA,92115,US
"Monkey, vervet",9975 Eliot Pass,,Cleveland,OH,44177,US
"Dik, kirk's dik",9 Shasta Circle,,Minneapolis,MN,55448,US
Common grenadier,7653 Karstens Terrace,38 Pankratz Circle,San Antonio,TX,78220,US
Curve-billed thrasher,5 Logan Drive,48 Eastwood Place,Baltimore,MD,21229,US
"Raccoon, common",2592 Anhalt Street,,Alexandria,VA,22313,US
"Armadillo, seven-banded",7854 Dovetail Pass,,Lansing,MI,48912,US
"Deer, savannah",1 Village Crossing,0 Esker Crossing,Pittsburgh,PA,15255,US
African elephant,961 Steensland Hill,6959 Kipling Plaza,New York City,NY,10131,US
African polecat,47460 Arkansas Alley,50777 Surrey Pass,Las Vegas,NV,89145,US
Crab-eating raccoon,64 Utah Court,8252 Toban Parkway,Springfield,OH,45505,US
Marabou stork,2 Grim Park,,New Orleans,LA,70174,US
"Crane, brolga",12 Debra Park,3 Di Loreto Place,Lexington,KY,40596,US
Ringtail cat,1341 Fuller Road,,Richmond,VA,23220,US
,36 Melvin Center,,Whittier,CA,90605,US
,99687 Mosinee Road,,Arlington,VA,22217,US
,45 Warrior Trail,,Richmond,VA,23208,US
"Goose, greylag",86878 Warrior Junction,17326 Merrick Center,Hartford,CT,06152,US
"Rat, desert kangaroo",7 Ridgeway Point,23 Beilfuss Crossing,Oklahoma City,OK,73147,US
Pronghorn,4936 Sauthoff Crossing,,Flushing,NY,11388,US
Little heron,39 Dennis Alley,4050 Prairie Rose Park,Panama City,FL,32412,US
"Crow, house",16477 Stuart Terrace,,Colorado Springs,CO,80920,US
Australian pelican,4 Transport Trail,,New York City,NY,10120,US
"Penguin, little blue",2 Oakridge Center,,Phoenix,AZ,85005,US
"Gazelle, thomson's",7595 Parkside Way,5830 Blue Bill Park Crossing,Peoria,IL,61651,US
Brush-tailed rat kangaroo,7 2nd Lane,1 Hanson Road,Camden,NJ,08104,US
American bighorn sheep,625 Erie Street,,Pasadena,CA,91199,US
"Cormorant, little",78 Prentice Lane,,Portland,OR,97255,US
"Civet, common palm",9136 Dakota Alley,88125 Mesta Terrace,Oceanside,CA,92056,US
Giraffe,12 Artisan Alley,,West Palm Beach,FL,33411,US
"Rhinoceros, white",10 Moland Way,,Stamford,CT,06905,US
,08501 Hazelcrest Hill,9821 Vermont Avenue,Minneapolis,MN,55423,US
"Hornbill, leadbeateri's ground",5 Lake View Terrace,,Midland,MI,48670,US
Ring-tailed possum,526 Grim Point,45 Northwestern Parkway,San Jose,CA,95118,US
Sidewinder,2 Elka Point,,Fairbanks,AK,99709,US
"Monitor, white-throated",8740 Huxley Place,,Colorado Springs,CO,80945,US
Violet-crested turaco,5772 Sommers Avenue,,Pinellas Park,FL,34665,US
,38 Manufacturers Drive,,El Paso,TX,88563,US
"Stork, white-necked",63293 Fairfield Road,0302 Manitowish Plaza,Memphis,TN,38114,US
Sage hen,991 Alpine Pass,8 Bultman Point,Richmond,VA,23213,US
"Sandgrouse, yellow-throated",8466 Kropf Place,845 Arapahoe Park,Des Moines,IA,50936,US
Mocking cliffchat,2811 Claremont Center,88280 Hagan Place,Harrisburg,PA,17140,US
"Beaver, european",5 Dovetail Plaza,89 Kropf Road,Colorado Springs,CO,80920,US
Civet cat,61438 Larry Point,,Topeka,KS,66642,US
Rose-ringed parakeet,65 Northview Junction,28954 Caliangt Street,Miami,FL,33111,US
"Gull, kelp",8 Spaight Center,,New York City,NY,10120,US
"Stilt, black-winged",398 Fairfield Drive,,Washington,DC,20520,US
"Cormorant, pied",40 Gerald Road,,Buffalo,NY,14233,US
"Macaw, blue and yellow",8 Nobel Drive,,Brooklyn,NY,11254,US
Yak,9 Kedzie Terrace,,Baltimore,MD,21239,US
"Gazelle, grant's",89110 Truax Way,,New York City,NY,10155,US
Brush-tailed bettong,2398 Debra Park,,Santa Monica,CA,90405,US
Buttermilk snake,0 Bluestem Junction,,Jeffersonville,IN,47134,US
"Owl, madagascar hawk",0 Londonderry Terrace,190 Victoria Parkway,Sioux Falls,SD,57198,US
Common genet,64602 Grover Way,,Spokane,WA,99205,US
"Nighthawk, common",5 Autumn Leaf Trail,254 Petterle Street,Tampa,FL,33625,US
"Dove, mourning collared",474 Knutson Park,,Cincinnati,OH,45213,US
,1416 Del Sol Alley,74285 Cordelia Avenue,Van Nuys,CA,91406,US
"Penguin, little blue",1421 East Center,851 Tennessee Terrace,Vero Beach,FL,32969,US
"Goose, spur-winged",85 Quincy Road,,Fresno,CA,93794,US
,29 Harbort Center,046 Ludington Crossing,Saint Louis,MO,63126,US
Barking gecko,35 West Way,41 Vera Avenue,Minneapolis,MN,55470,US
"Grebe, little",8 Fuller Court,,Birmingham,AL,35215,US
"Kangaroo, red",84 Summerview Park,,Vero Beach,FL,,US
"Bird, black-throated butcher",98466 Dapin Pass,83128 Bay Avenue,Winston Salem,NC,27157,US
"Dragon, frilled",3275 Linden Court,,Washington,DC,20409,US
Red-necked wallaby,68305 Mcguire Plaza,,Miami,FL,33164,US
"Leopard, indian",0 Eagan Lane,89 Hintze Point,Omaha,NE,68117,US
Genoveva,99074 Sullivan Hill,542 Towne Place,South Bend,IN,46614,US
Yellow-necked spurfowl,967 Anniversary Junction,00 Dorton Pass,San Angelo,TX,76905,US
Bird (unidentified),15 Dunning Road,,Boston,MA,02124,US
"Vulture, white-rumped",260 Rusk Pass,,Green Bay,WI,54305,US
,22 Montana Road,884 3rd Avenue,Whittier,CA,90610,US
Blue fox,216 Stang Trail,,Memphis,TN,38197,US
"Rhea, gray",36637 Victoria Court,,Boise,ID,,US
Coqui francolin,70 Truax Road,,Houston,TX,77020,US
"Nighthawk, common",27 Westend Circle,,Macon,GA,31217,US
"Drongo, fork-tailed",409 Maywood Junction,,Pittsburgh,PA,,US
Tokay gecko,18068 Goodland Pass,,Sacramento,CA,95823,US
Netted rock dragon,16 Southridge Park,126 Logan Court,New Orleans,LA,,US
Steenbok,08 Manufacturers Pass,3 Lerdahl Alley,Columbus,OH,43210,US
"Dolphin, common",27 Canary Street,,El Paso,TX,79928,US
,3 Sachtjen Junction,,Sacramento,CA,95818,US
Bateleur eagle,2078 Bunker Hill Point,,Rockford,IL,61110,US
"Dove, laughing",25992 Corry Place,124 Tony Lane,Roanoke,VA,,US
African lynx,0663 Burrows Center,,Detroit,MI,48275,US
Least chipmunk,33 Cordelia Hill,2319 Arrowood Crossing,Trenton,NJ,08695,US
Sulfur-crested cockatoo,2 Susan Park,219 Lakeland Lane,Oakland,CA,94616,US
Kaffir cat,9 Kennedy Pass,,Jacksonville,FL,32225,US
"Possum, common brushtail",98 Buhler Junction,,Cincinnati,OH,45243,US
Pine squirrel,155 Schiller Point,,Akron,OH,44329,US
Sulfur-crested cockatoo,467 Sunnyside Center,,Washington,DC,20397,US
,2296 Melody Way,55 Victoria Center,San Antonio,TX,78220,US
"Hyena, spotted",1 Nelson Pass,0 Anderson Lane,Richmond,VA,23289,US
"Owl, white-browed",6840 Killdeer Circle,,Duluth,MN,55811,US
"Lemur, grey mouse",56 Mayer Avenue,,Des Moines,IA,50362,US
Small-clawed otter,7 Mandrake Point,6822 Fremont Parkway,El Paso,TX,88589,US
"Quoll, spotted-tailed",8 Springview Plaza,66 Duke Point,Pittsburgh,PA,15250,US
Brown lemur,8 Columbus Drive,,Warren,MI,48092,US
"Goose, knob-nosed",829 Bunting Circle,,Salt Lake City,UT,84140,US
"Baboon, yellow",44768 Kedzie Road,,Pensacola,FL,32505,US
,80784 Rusk Point,,Charleston,WV,25389,US
"Dove, white-winged",18 Hazelcrest Street,45985 Thackeray Junction,Dallas,TX,75367,US
Blue crane,89 Kings Point,1633 Golf Way,West Hartford,CT,06127,US
"Crane, sandhill",735 Tomscot Place,10 Trailsway Parkway,Elmira,NY,,US
Grey lourie,8366 Amoth Plaza,,Little Rock,AR,72209,US
Feathertail glider,39 Lighthouse Bay Parkway,,Valdosta,GA,31605,US
"Bee-eater, carmine",0 Swallow Terrace,6 South Plaza,Young America,MN,55564,US
"Weaver, white-browed sparrow",7947 Bunting Street,,Saint Louis,MO,63180,US
,0504 Forest Drive,7 Prentice Lane,Houston,TX,77255,US
Galapagos penguin,84306 Green Ridge Place,,Omaha,NE,68197,US
Indian giant squirrel,7032 Golf Course Road,,Jefferson City,MO,65110,US
"Kangaroo, red",91 Carioca Road,,Wichita,KS,67210,US
"Hoopoe, eurasian",559 Texas Pass,65744 Basil Alley,Portland,OR,97216,US
Ring-tailed lemur,72 Kipling Parkway,8 Jenifer Hill,Salt Lake City,UT,84130,US
"Rhea, gray",36 Merchant Avenue,,Pasadena,CA,91199,US
,4 Westridge Junction,,Springfield,IL,62705,US
Fork-tailed drongo,052 Boyd Street,,Lynn,MA,01905,US
Wild turkey,0 Green Road,9 Iowa Crossing,Battle Creek,MI,49018,US
"Stork, woolly-necked",1 Corscot Road,,Elmira,NY,14905,US
,3435 Jana Circle,96 Corry Point,Davenport,IA,52804,US
Komodo dragon,8 Fuller Avenue,1584 Armistice Center,Roanoke,VA,24034,US
,1629 Pierstorff Plaza,93 Mcguire Crossing,Arlington,TX,76096,US
Black vulture,1 Luster Plaza,,Metairie,LA,70033,US
"Bandicoot, southern brown",518 Northwestern Trail,,Yakima,WA,98907,US
Black-collared barbet,34 Red Cloud Alley,3 Riverside Terrace,Tacoma,WA,98405,US
"Zebra, common",011 Petterle Way,,Wichita,KS,67215,US
"Duck, comb",883 6th Parkway,9243 Graedel Avenue,Kingsport,TN,37665,US
"Kangaroo, brush-tailed rat",83 Delladonna Street,,Bellevue,WA,98008,US
White-faced whistling duck,1829 Hanson Alley,,Salt Lake City,UT,84140,US
"Lemur, sportive",30378 Carioca Street,,Utica,NY,13505,US
"Rattlesnake, eastern diamondback",2 Eastwood Circle,,North Little Rock,AR,,US
,80 Briar Crest Street,70 1st Junction,Louisville,KY,40215,US
"Goose, greylag",0 Mesta Parkway,,Springfield,MA,01114,US
,209 Monument Park,197 Ronald Regan Point,San Antonio,TX,78255,US
Galah,66 Shoshone Street,,Saint Paul,MN,55146,US
Black and white colobus,71 Glacier Hill Park,8420 Bunting Trail,Oklahoma City,OK,73109,US
Great horned owl,053 Caliangt Parkway,,San Diego,CA,92105,US
Royal tern,9084 Mendota Drive,46012 Jay Hill,Waco,TX,76711,US
Tawny frogmouth,8845 Loomis Trail,,Garden Grove,CA,92844,US
Black-backed jackal,82 Homewood Alley,,Spring,TX,77388,US
Mudskipper (unidentified),3518 Warrior Crossing,2576 La Follette Drive,Spring,TX,77388,US
"Colobus, magistrate black",563 Amoth Crossing,95169 Shelley Place,Cincinnati,OH,45213,US
"Antechinus, brown",07 Loeprich Terrace,61317 Larry Plaza,Corpus Christi,TX,78410,US
Australian spiny anteater,57 Continental Way,,Billings,MT,,US
Blue crane,0 Mockingbird Court,58 Nelson Lane,Aurora,CO,80015,US
"Rat, arboral spiny",5933 Kensington Terrace,,Asheville,NC,28805,US
Red-tailed phascogale,464 Lindbergh Road,,Sacramento,CA,95865,US
"Goose, andean",6182 Texas Plaza,,Dallas,TX,75226,US
Grey heron,60 Kennedy Hill,,Los Angeles,CA,90101,US
"Sunbird, lesser double-collared",35 Shoshone Street,,Reston,VA,20195,US
Red-legged pademelon,4302 Hintze Parkway,,Portland,OR,97255,US
"Dog, african wild",6748 Fairfield Drive,,Montgomery,AL,,US
Dark-winged trumpeter,0 Maple Junction,,Fort Myers,FL,33913,US
"Squirrel, eurasian red",96143 Kinsman Crossing,8536 Harper Place,Davenport,IA,52809,US
"Cormorant, pied",20117 Susan Lane,87611 Almo Lane,Tulsa,OK,74126,US
"Stork, greater adjutant",7103 Fair Oaks Hill,,Des Moines,IA,50936,US
,0 Maple Point,,Kalamazoo,MI,49048,US
,2542 Rusk Avenue,,Louisville,KY,40293,US
Agouti,5 Laurel Terrace,,New York City,NY,10203,US
,37146 Carberry Street,7416 Dixon Road,Cleveland,OH,44197,US
Greater sage grouse,601 Roth Pass,,Albany,NY,12255,US
"Snake, carpet",9 Village Green Lane,,Naples,FL,34114,US
Black-necked stork,581 Twin Pines Crossing,,Cincinnati,OH,45213,US
Blue and gold macaw,6 Maywood Court,,Scottsdale,AZ,,US
Black-throated cardinal,499 Melrose Parkway,8597 4th Court,Greensboro,NC,27499,US
,0971 Buena Vista Junction,,San Antonio,TX,78250,US
,817 Dryden Pass,,Pasadena,CA,91199,US
"Boa, malagasy ground",770 Russell Way,210 Melrose Plaza,Waco,TX,76796,US
Currasow (unidentified),8 Mitchell Alley,269 Karstens Terrace,Gadsden,AL,35905,US
"Possum, pygmy",31 Pawling Point,,Young America,MN,55564,US
Springbuck,2845 Mallard Circle,,San Diego,CA,92176,US
Vine snake (unidentified),03 Arkansas Circle,,Memphis,TN,38114,US
Grey heron,741 Hermina Circle,5 Claremont Trail,Fargo,ND,58106,US
Brazilian otter,558 Esch Hill,,Shawnee Mission,KS,66286,US
Brown and yellow marshbird,843 Mccormick Avenue,,Melbourne,FL,32919,US
Trumpeter swan,0 Onsgard Plaza,,Fayetteville,NC,28314,US
Mexican wolf,61 Loftsgordon Crossing,,Knoxville,TN,37919,US
"Monster, gila",7 Briar Crest Circle,585 Mcbride Lane,Kansas City,MO,64136,US
"Chickadee, black-capped",892 5th Trail,,Carson City,NV,89714,US
,0 Oakridge Plaza,913 West Circle,Concord,CA,94522,US
"Possum, golden brush-tailed",1896 Stephen Lane,41347 Roxbury Crossing,Sacramento,CA,95833,US
Malay squirrel (unidentified),77599 Pond Terrace,3 Maple Terrace,Seattle,WA,98109,US
American black bear,29 Pine View Center,,Saint Paul,MN,55123,US
White-faced whistling duck,493 Lien Trail,,Las Vegas,NV,89160,US
"Duck, white-faced whistling",03 Stephen Pass,27792 Nancy Lane,Charlotte,NC,28299,US
"Pigeon, feral rock",13770 Charing Cross Trail,,Richmond,VA,,US
"Dolphin, bottle-nose",6251 Morrow Crossing,,Jefferson City,MO,65105,US
Asian elephant,040 Melrose Point,,Fort Lauderdale,FL,33345,US
"Siskin, pine",6620 Cherokee Avenue,,Buffalo,NY,14233,US
"Crane, blue",4234 Butterfield Terrace,137 Carioca Pass,San Jose,CA,95138,US
"Siskin, pine",2339 Farmco Way,77448 Thackeray Alley,Washington,DC,20062,US
"Sloth, pale-throated three-toed",4925 Lyons Point,,Fort Wayne,IN,46896,US
Neotropic cormorant,95248 Village Green Alley,,Springfield,MA,01105,US
"Jaeger, long-tailed",82 Rutledge Center,,Memphis,TN,,US
"Camel, dromedary",39646 Dixon Trail,815 Donald Avenue,Arlington,TX,,US
"Ass, asiatic wild",07 Summer Ridge Center,9990 Mcbride Crossing,Washington,DC,20546,US
Crested screamer,20687 Morning Lane,,Raleigh,NC,27690,US
"Sparrow, rufous-collared",528 Ronald Regan Hill,4 Onsgard Lane,Knoxville,TN,37924,US
"Buffalo, american",987 Sundown Terrace,,Raleigh,NC,27635,US
Common duiker,9 Crownhardt Court,,Aurora,CO,80015,US
"Langur, hanuman",22672 Darwin Terrace,,Herndon,VA,22070,US
Cuis,250 Sutteridge Junction,697 Cherokee Place,Jamaica,NY,,US
"Glider, squirrel",25484 Mesta Junction,,Fort Wayne,IN,46852,US
Little heron,80646 Swallow Lane,,Houston,TX,77299,US
Roe deer,373 Thompson Alley,,El Paso,TX,88553,US
Blacksmith plover,8 Parkside Pass,8 Westridge Alley,Denver,CO,80249,US
"Deer, barasingha",773 Tomscot Court,,Gainesville,FL,32605,US
"Kite, black",464 Jay Terrace,4764 Monica Terrace,San Antonio,TX,78278,US
Crowned hawk-eagle,530 Hooker Center,,Denver,CO,80249,US
"Wallaby, red-necked",45 Alpine Terrace,,Madison,WI,53785,US
"Hawk, ferruginous",74306 Spohn Park,,Louisville,KY,40220,US
White-fronted capuchin,9 Spohn Avenue,7835 Myrtle Park,Pompano Beach,FL,33075,US
"Flamingo, roseat",30055 Crescent Oaks Crossing,,West Palm Beach,FL,33416,US
"Flycatcher, tyrant",22 Burrows Junction,6 Tomscot Point,Washington,DC,20029,US
Sociable weaver,39 Mayer Crossing,,Ridgely,MD,21684,US
"Elephant, african",2857 Lerdahl Center,553 Hermina Pass,Boca Raton,FL,,US
"Eagle, golden",0170 Helena Place,,Oklahoma City,OK,73135,US
,17790 Main Crossing,,Champaign,IL,61825,US
Long-billed corella,7530 Morning Way,,Pittsburgh,PA,15220,US
Gerenuk,8622 Riverside Plaza,638 Harbort Way,Washington,DC,20078,US
"Starfish, crown of thorns",6089 Leroy Place,56 Lyons Circle,Fort Smith,AR,72916,US
Coke's hartebeest,584 Waxwing Crossing,,Huntington Beach,CA,92648,US
"Waxbill, violet-eared",37918 Schmedeman Avenue,,Fort Worth,TX,76178,US
African black crake,12443 Warbler Point,374 La Follette Park,Kansas City,MO,64142,US
Canadian tiger swallowtail butterfly,9 Linden Center,218 Mosinee Drive,Carson City,NV,89714,US
Black-cheeked waxbill,9454 Independence Junction,1200 Novick Alley,Brea,CA,92822,US
Waved albatross,6 South Point,24 Burning Wood Point,Minneapolis,MN,55458,US
Collared lizard,79915 Sugar Point,8 Porter Alley,Boulder,CO,80310,US
Long-billed corella,82858 8th Center,5 Veith Way,Woburn,MA,01813,US
"Swan, black",38214 Iowa Terrace,,San Antonio,TX,78215,US
African ground squirrel (unidentified),53454 Sommers Parkway,,Atlanta,GA,31196,US
Asian openbill,665 Hoepker Park,,Chicago,IL,60604,US
Black-crowned crane,20696 Havey Hill,,Anaheim,CA,92825,US
"Antelope, four-horned",9333 Columbus Place,,Cedar Rapids,IA,52410,US
"Marten, american",93734 Clove Center,,Irvine,CA,92717,US
"Admiral, indian red",6941 Basil Road,,Washington,DC,20062,US
"Gnu, brindled",89364 Lakewood Hill,,Salt Lake City,UT,84152,US
"Dragon, western bearded",1677 Carpenter Court,34011 Delladonna Center,Hagerstown,MD,21747,US
Red phalarope,3752 Green Drive,,Cleveland,OH,44185,US
Blue racer,3395 Hauk Point,,Columbus,GA,31904,US
"Mynah, indian",8211 Harper Hill,,Buffalo,NY,14225,US
"Sheathbill, snowy",846 Lindbergh Circle,84 Doe Crossing Circle,Texarkana,TX,75507,US
"Lemur, ring-tailed",917 Gina Plaza,39 American Ash Way,El Paso,TX,88584,US
Saddle-billed stork,663 Macpherson Way,,Memphis,TN,38181,US
"Genet, common",30 Susan Terrace,1446 Vera Point,Springfield,MO,65898,US
Reindeer,57 Sauthoff Drive,2555 Golf Hill,Melbourne,FL,32941,US
Eurasian hoopoe,79 Anzinger Circle,,Birmingham,AL,35220,US
"Turkey, wild",58429 Summer Ridge Center,,Lakewood,WA,98498,US
Bee-eater (unidentified),508 Westerfield Street,,Paterson,NJ,07544,US
,701 Annamark Hill,,Sioux Falls,SD,57198,US
Tiger cat,3365 Florence Pass,,Pittsburgh,PA,15261,US
Red squirrel,7277 Rockefeller Road,692 Dakota Pass,Nashville,TN,37240,US
Little blue penguin,240 Ryan Avenue,,Everett,WA,98206,US
"Otter, cape clawless",8 Eastwood Way,,Sioux Falls,SD,57188,US
"Bulbul, black-eyed",588 Carpenter Park,2 Waxwing Center,Peoria,IL,61656,US
European beaver,26 Messerschmidt Parkway,,Youngstown,OH,44511,US
"Goldeneye, barrows",1955 South Point,,Alexandria,VA,22313,US
,0417 Walton Street,,Delray Beach,FL,33448,US
Yellow-brown sungazer,4747 Cottonwood Junction,7 Sullivan Lane,Orlando,FL,32830,US
Black kite,9494 Dexter Lane,,Providence,RI,02905,US
Golden eagle,35760 Dwight Crossing,29 Duke Place,Peoria,IL,,US
Hippopotamus,00 Little Fleur Pass,2404 Dexter Way,Minneapolis,MN,55423,US
Horned puffin,483 Rigney Center,,Nashville,TN,37240,US
Western pygmy possum,38778 Gale Park,,Los Angeles,CA,90030,US
"Grouse, sage",6 Carpenter Point,,Orlando,FL,32885,US
"Marshbird, brown and yellow",378 Eagle Crest Point,,Denver,CO,80223,US
"Tern, white-winged",9651 Arapahoe Court,120 Blackbird Way,Staten Island,NY,10310,US
Cook's tree boa,607 Village Green Alley,,Toledo,OH,43635,US
Red-breasted cockatoo,00 Eggendart Way,,Boston,MA,02124,US
Cape clawless otter,248 Claremont Street,3 Monterey Lane,Loretto,MN,,US
"Hyena, striped",62608 Farmco Trail,,Long Beach,CA,90840,US
Brown pelican,945 Evergreen Point,,Oxnard,CA,93034,US
"Turkey, wild",514 Bowman Point,,New York City,NY,10045,US
"Barbet, crested",26680 Homewood Alley,4885 Bultman Trail,Boise,ID,83722,US
Eastern white pelican,88 Hazelcrest Way,46402 Eagan Circle,Pittsburgh,PA,15235,US
"Lion, african",8187 Holmberg Trail,,Youngstown,OH,44511,US
Yellow-throated sandgrouse,0512 Hanover Alley,,Houston,TX,77299,US
,3063 Village Place,08 Sunbrook Court,Inglewood,CA,90305,US
Galapagos dove,772 Ridge Oak Court,15 Sutteridge Hill,Dallas,TX,75246,US
Eastern fox squirrel,4170 Havey Alley,,Ventura,CA,93005,US
Western bearded dragon,8186 Old Shore Pass,,Winston Salem,NC,27157,US
"Moccasin, water",339 Southridge Plaza,,Lansing,MI,48919,US
Royal tern,93 Springview Junction,,El Paso,TX,88519,US
Yellow-necked spurfowl,3 Eagle Crest Plaza,983 Montana Way,Cedar Rapids,IA,52410,US
"Marmot, hoary",52 Old Shore Parkway,,Albany,NY,12227,US
Pale-throated three-toed sloth,9517 Goodland Lane,,Valley Forge,PA,19495,US
"Macaw, red and blue",8 Havey Way,,Alhambra,CA,91841,US
"Hare, arctic",60 Tennyson Crossing,,Atlanta,GA,30380,US
"Duck, white-faced whistling",8 Talisman Plaza,,Evansville,IN,47732,US
North American beaver,23 Heffernan Road,,Portland,OR,97255,US
Blue-faced booby,9800 Grasskamp Drive,,New York City,NY,10060,US
Arctic ground squirrel,90 Sutherland Hill,903 Starling Park,Irving,TX,,US
"Mouse, four-striped grass",9 Manitowish Avenue,4 Bayside Terrace,Memphis,TN,38114,US
,4 Dryden Road,1169 Everett Road,Norwalk,CT,06859,US
Giant armadillo,165 Canary Junction,,Pompano Beach,FL,33075,US
"Lion, mountain",15208 Sunbrook Terrace,,New York City,NY,10039,US
,438 Coleman Trail,,Oklahoma City,OK,73173,US
Springbuck,9656 Walton Point,,Crawfordsville,IN,47937,US
Grison,490 Reinke Center,,Saint Petersburg,FL,33710,US
"Wombat, southern hairy-nosed",81 Pierstorff Place,,Kansas City,MO,64142,US
"Tenrec, tailless",1602 Mesta Parkway,,Lubbock,TX,79452,US
"Moorhen, purple",44 Eastwood Trail,,Boston,MA,02216,US
Carpet snake,8 Menomonie Lane,,Garden Grove,CA,92645,US
"Screamer, southern",90 Moland Center,47317 Clyde Gallagher Pass,Reno,NV,89505,US
Southern tamandua,1710 Talmadge Way,946 Aberg Avenue,Detroit,MI,48258,US
Hyrax,2181 Iowa Road,,Miami Beach,FL,33141,US
,9979 Artisan Center,,London,KY,40745,US
European spoonbill,46 Derek Parkway,,Orlando,FL,32859,US
"Phalarope, northern",9 Melody Drive,,Topeka,KS,66606,US
,433 Mosinee Way,,Saint Petersburg,FL,33742,US
White-fronted bee-eater,21 School Lane,,San Diego,CA,92160,US
"Hornbill, red-billed",4954 Forest Hill,6 Schlimgen Lane,Richmond,VA,23289,US
Common rhea,13652 Prentice Alley,,Milwaukee,WI,53215,US
Brindled gnu,968 Loftsgordon Drive,,Washington,DC,20551,US
Aardwolf,8 Carioca Terrace,159 Loeprich Road,Albuquerque,NM,87201,US
Greater kudu,26057 Elmside Court,,Stamford,CT,06912,US
"Racer, american",634 Cordelia Crossing,,Oklahoma City,OK,73109,US
,55 Kennedy Park,9763 4th Crossing,Oklahoma City,OK,73104,US
Kalahari scrub robin,90 Porter Alley,,Boulder,CO,80305,US
"Puma, south american",0 Maywood Alley,,Aurora,CO,80045,US
"Dog, raccoon",4 Arapahoe Point,,San Jose,CA,95128,US
"Flicker, campo",3 Riverside Alley,8294 Moland Circle,El Paso,TX,88558,US
"Devil, tasmanian",574 Rutledge Circle,,White Plains,NY,10633,US
European spoonbill,99780 Center Lane,839 Lukken Alley,Orlando,FL,32854,US
"Hyena, spotted",80937 Lunder Circle,,Chattanooga,TN,37416,US
,4934 Mallory Drive,,Pittsburgh,PA,15235,US
Silver gull,40 Westend Center,,Minneapolis,MN,55402,US
"Tinamou, elegant crested",7220 Blue Bill Park Junction,,North Hollywood,CA,,US
Lesser mouse lemur,8995 Fairfield Park,,Richmond,VA,23208,US
Sambar,1004 Riverside Trail,,El Paso,TX,79950,US
"Cormorant, flightless",428 Cherokee Terrace,,Atlanta,GA,30328,US
Burrowing owl,53592 Independence Street,8089 Dapin Drive,Miami,FL,33245,US
"Vulture, white-rumped",98749 Aberg Plaza,,Lake Charles,LA,70616,US
"Cockatoo, slender-billed",06 Magdeline Crossing,,Washington,DC,20205,US
Ovenbird,9 Sutherland Plaza,9 Sheridan Circle,Shawnee Mission,KS,66220,US
Dusky rattlesnake,102 Spohn Hill,,Washington,DC,20508,US
,12418 Declaration Plaza,47 Texas Alley,Saint Louis,MO,63143,US
Black-capped chickadee,864 Sloan Place,37 International Avenue,Indianapolis,IN,46239,US
Mara,682 Dakota Circle,,Winston Salem,NC,27105,US
"Caracara, yellow-headed",18 Crownhardt Park,,Redwood City,CA,94064,US
"Brocket, brown",02 Fair Oaks Point,,Savannah,GA,31422,US
Swallow-tail gull,238 Sunbrook Drive,,Duluth,GA,30195,US
,15596 Florence Lane,,Alexandria,VA,22333,US
Civet cat,47939 Cascade Parkway,,Washington,DC,20220,US
Cape clawless otter,207 Summerview Plaza,,Columbus,MS,39705,US
,737 Ruskin Center,,Billings,MT,59105,US
Bohor reedbuck,247 Barby Terrace,22 Anniversary Park,Denver,CO,80262,US
Brown antechinus,45 Old Gate Road,,Des Moines,IA,50320,US
"Lizard, mexican beaded",768 Center Point,,Stockton,CA,95219,US
Feathertail glider,6873 1st Hill,,South Bend,IN,46699,US
Scaly-breasted lorikeet,373 Cascade Circle,,Independence,MO,64054,US
"Elk, Wapiti",7 Shoshone Way,69 Springview Hill,Lancaster,PA,17605,US
"Roller, lilac-breasted",39 Logan Place,4 Heffernan Parkway,Jackson,MS,39282,US
Common melba finch,831 Melrose Parkway,,Memphis,TN,38136,US
Barking gecko,01136 Forest Run Parkway,,Charleston,SC,29424,US
Polar bear,0 Morning Drive,,Aiken,SC,29805,US
African pied wagtail,3228 Coleman Trail,,Dallas,TX,75358,US
Lappet-faced vulture,8 Melrose Circle,,Washington,DC,20546,US
Cape wild cat,59483 Hazelcrest Plaza,,Memphis,TN,38131,US
"Dove, white-winged",56 Porter Way,,White Plains,NY,10633,US
"Tortoise, burmese black mountain",4 Cascade Alley,,Littleton,CO,,US
"Lemur, brown",616 Packers Trail,241 Independence Trail,Houston,TX,77075,US
"Hoopoe, eurasian",26928 Meadow Ridge Lane,,Tulsa,OK,,US
Pig-tailed macaque,6 Colorado Park,1951 Rowland Terrace,Rockford,IL,61110,US
Madagascar fruit bat,76404 Veith Hill,,New Haven,CT,06533,US
"Egret, great",26 8th Way,340 Barnett Crossing,Spokane,WA,99260,US
"Cormorant, neotropic",6889 Forest Hill,5 Maywood Hill,Memphis,TN,38109,US
Timber wolf,56155 Mockingbird Avenue,,Arlington,VA,22244,US
Jungle cat,016 Bunker Hill Street,766 Lakewood Road,Bakersfield,CA,93386,US
"Nutcracker, clark's",785 Glacier Hill Court,1345 Mosinee Circle,Fresno,CA,93762,US
"Baboon, chacma",4483 Superior Plaza,,Washington,DC,20226,US
"Fox, cape",750 Randy Road,,Irvine,CA,92619,US
Slender-billed cockatoo,39 Mesta Terrace,,Fayetteville,NC,28314,US
Guanaco,98 Bluestem Lane,,Appleton,WI,54915,US
White-tailed jackrabbit,6 Oxford Street,,Tulsa,OK,74116,US
Antelope ground squirrel,3 Raven Plaza,1859 Reinke Hill,Independence,MO,64054,US
Kori bustard,4 Trailsway Parkway,92 Rutledge Street,Orlando,FL,32813,US
"Hare, arctic",987 Village Green Hill,9491 Aberg Pass,Saint Louis,MO,63121,US
Small Indian mongoose,5029 Aberg Plaza,265 American Ash Avenue,Birmingham,AL,35290,US
Frog (unidentified),9 Dixon Lane,,Fresno,CA,93721,US
"Dove, emerald-spotted wood",51 Northridge Park,,High Point,NC,27264,US
Brush-tailed bettong,921 Kingsford Drive,,Huntsville,AL,35895,US
"Albatross, waved",39 3rd Alley,2 Roxbury Crossing,Long Beach,CA,90831,US
"Stork, european",66754 Dahle Crossing,34 Miller Park,Cincinnati,OH,45999,US
"Coatimundi, ring-tailed",339 Daystar Hill,0 Buena Vista Lane,Salt Lake City,UT,84125,US
"Falcon, prairie",54517 Transport Point,,Washington,DC,20546,US
Yellow-throated sandgrouse,9849 Northfield Alley,,Bloomington,IL,61709,US
"Cormorant, pied",7 Maple Plaza,,New Orleans,LA,70183,US
"Mongoose, yellow",37771 Center Alley,,Naples,FL,33963,US
Roseate cockatoo,2251 Straubel Junction,,Reno,NV,89519,US
"Dolphin, striped",1134 Sunfield Hill,,Fort Worth,TX,76129,US
"Baboon, chacma",7 Lakewood Gardens Pass,,Fresno,CA,93704,US
Bontebok,3 Hovde Court,,Odessa,TX,79769,US
Eastern grey kangaroo,30 Kings Junction,,Spokane,WA,99215,US
Glossy starling (unidentified),2661 Chinook Road,,Phoenix,AZ,85020,US
Crested porcupine,11 Badeau Avenue,08267 Heffernan Parkway,Colorado Springs,CO,80925,US
"Elk, Wapiti",8267 Toban Alley,31 Muir Way,New Brunswick,NJ,,US
"Flycatcher, tyrant",614 Redwing Junction,,Philadelphia,PA,19125,US
Southern screamer,8092 Derek Court,80121 Glacier Hill Crossing,Saint Cloud,MN,56398,US
"Boa, mexican",61310 Crowley Lane,,North Hollywood,CA,91616,US
"Gull, lava",30477 Grasskamp Place,,Denver,CO,80204,US
Flightless cormorant,995 Springs Lane,,Richmond,VA,23237,US
"Bandicoot, southern brown",4 Miller Hill,,New York City,NY,10009,US
,557 Tennyson Lane,39 Melody Terrace,San Francisco,CA,94147,US
Coyote,92155 South Pass,,Hartford,CT,06183,US
Greater flamingo,62 Dorton Trail,,Albany,NY,12232,US
American beaver,683 Service Trail,2 Reindahl Plaza,Stockton,CA,95219,US
Smith's bush squirrel,1335 Fordem Court,,Sacramento,CA,94257,US
Comb duck,79 Dovetail Court,,Fort Lauderdale,FL,33336,US
"Starling, greater blue-eared",4 Forest Dale Circle,,Sacramento,CA,94245,US
"Baboon, yellow",1 Nobel Avenue,082 Prentice Road,Spartanburg,SC,29319,US
"Mynah, indian",99202 Blaine Point,8 Bluejay Road,Vancouver,WA,98687,US
Roan antelope,0126 Thackeray Pass,26 Bayside Hill,Erie,PA,16565,US
"Boa, columbian rainbow",9646 Stephen Place,4 Killdeer Plaza,Santa Fe,NM,87505,US
"Rhea, common",002 Golf Avenue,666 Vahlen Way,Cape Coral,FL,33915,US
"Parakeet, rose-ringed",5422 Rieder Place,68828 Nancy Park,Dayton,OH,45426,US
"Shrew, mandras tree",6302 Oriole Lane,53021 Eliot Park,Torrance,CA,90510,US
,6593 Becker Junction,,Harrisburg,PA,17110,US
"Flamingo, chilean",177 Coleman Avenue,189 Erie Lane,Migrate,KY,41905,US
Malay squirrel (unidentified),5484 Maryland Park,52 Grayhawk Crossing,Oakland,CA,94660,US
Savannah deer (unidentified),36 Waxwing Junction,95948 Menomonie Avenue,Midland,MI,48670,US
"Seal, common",8567 Southridge Place,4 Vera Alley,Arlington,VA,22212,US
Collared peccary,06 Fallview Parkway,5 Bultman Point,Wilmington,NC,28405,US
"Iguana, land",357 Hallows Pass,7540 Bowman Lane,Annapolis,MD,21405,US
"Lizard, desert spiny",75048 Pepper Wood Center,0 Green Crossing,Portland,OR,97201,US
"Nuthatch, red-breasted",1156 Becker Crossing,,Wilmington,DE,19892,US
"Shrew, mandras tree",15608 Golf Course Trail,,Homestead,FL,33034,US
Little brown bat,689 Towne Trail,0 Russell Trail,Billings,MT,59112,US
,23426 Novick Junction,,Mesa,AZ,85210,US
Green heron,6359 Scofield Hill,214 Swallow Center,New York City,NY,10034,US
American woodcock,3563 Lindbergh Point,867 Scofield Center,Baltimore,MD,21290,US
Red-breasted nuthatch,4 Susan Trail,,Texarkana,TX,75507,US
"Monkey, red howler",2812 Melby Place,,Tucson,AZ,85705,US
Small-clawed otter,6 Washington Parkway,,Seattle,WA,98104,US
,5644 Westend Junction,86 Golf Junction,Pasadena,CA,91125,US
"Quail, gambel's",66 Eastlawn Plaza,,West Palm Beach,FL,33405,US
Cape wild cat,0373 Utah Trail,,Cedar Rapids,IA,52410,US
"Fox, north american red",0 Lukken Center,,Odessa,TX,,US
"Penguin, galapagos",98334 Fuller Park,,Mesa,AZ,85215,US
,3 Blaine Alley,5813 Jackson Place,Billings,MT,59112,US
Madagascar fruit bat,3059 Jay Terrace,,Corona,CA,,US
,5733 Declaration Trail,,San Jose,CA,95138,US
Grison,4006 Banding Drive,,Tucson,AZ,85705,US
Little grebe,033 Sage Hill,,Nashville,TN,37220,US
"Starling, cape",5 Norway Maple Drive,625 Springs Court,Portland,OR,97206,US
"Cat, cape wild",32505 Manley Park,717 Veith Terrace,Nashville,TN,37245,US
African porcupine,8507 Butternut Pass,,Hamilton,OH,45020,US
"Pelican, brown",860 Lotheville Crossing,7507 Red Cloud Alley,Birmingham,AL,35290,US
"Snake, tiger",318 Kim Junction,,Amarillo,TX,79171,US
Western palm tanager (unidentified),88907 Little Fleur Road,1 Raven Hill,Englewood,CO,80150,US
Woylie,9 Fieldstone Terrace,27 Cordelia Lane,Punta Gorda,FL,33982,US
"Skunk, striped",53797 Maryland Junction,,Dallas,TX,75353,US
"Dolphin, common",369 Lake View Way,00063 Hoffman Hill,Laredo,TX,78044,US
White-necked stork,1317 Hovde Court,,Orange,CA,92867,US
,39237 Village Green Terrace,969 Magdeline Junction,Washington,DC,20036,US
"Cat, toddy",911 Onsgard Crossing,,Seminole,FL,34642,US
"Penguin, little blue",3 Green Drive,273 American Ash Plaza,Bethesda,MD,20892,US
,3064 Almo Place,7 Independence Trail,Memphis,TN,38114,US
"Mongoose, eastern dwarf",4 Carpenter Alley,77271 Gale Center,Duluth,GA,30096,US
Sarus crane,2 Porter Circle,,Brooklyn,NY,11215,US
"Bird, bare-faced go away",3 Dapin Court,,Las Vegas,NV,89178,US
,91 Gina Trail,,Fredericksburg,VA,22405,US
"Robin, white-throated",71 Birchwood Lane,,Seattle,WA,98148,US
Greater flamingo,23 Arapahoe Center,62949 New Castle Lane,Sioux Falls,SD,57105,US
White-tailed deer,3 Kennedy Road,,Boise,ID,83722,US
Gemsbok,51 Straubel Junction,,Cincinnati,OH,45213,US
Dingo,44 Algoma Drive,9684 Declaration Crossing,Birmingham,AL,35236,US
"Catfish, blue",5913 Gerald Street,,Houston,TX,77293,US
Emerald-spotted wood dove,3 Homewood Plaza,445 Randy Park,Santa Monica,CA,,US
"Monkey, vervet",0236 Sycamore Alley,,Savannah,GA,31416,US
"Bee-eater, white-fronted",9 Surrey Road,3 Golf Course Center,Silver Spring,MD,20904,US
Comb duck,47824 Morningstar Junction,,Chicago,IL,60674,US
"Parakeet, rose-ringed",71571 Atwood Way,,Syracuse,NY,13224,US
,899 Miller Junction,,Washington,DC,20392,US
Australian sea lion,43 Rusk Street,,Kansas City,MO,64136,US
"Waterbuck, defassa",1309 Monica Parkway,,Winston Salem,NC,27105,US
Killer whale,50575 Anderson Point,93773 Melby Crossing,San Diego,CA,92110,US
"Wallaby, river",1291 Clove Hill,,Charleston,SC,29416,US
Beisa oryx,6 Mifflin Crossing,,Migrate,KY,41905,US
Tarantula,49 Hoffman Park,,Los Angeles,CA,,US
"Bunting, crested",433 Elka Parkway,,Washington,DC,20530,US
Jungle cat,4 Washington Road,,Denver,CO,80291,US
,3 Mallard Terrace,20236 Ridgeview Pass,Daytona Beach,FL,32128,US
,4543 Dryden Lane,,Metairie,LA,70005,US
"Catfish, blue",26 Lakewood Place,,Battle Creek,MI,49018,US
"Albatross, galapagos",81050 Springs Place,,Erie,PA,16510,US
White stork,98 Schurz Center,,Saint Louis,MO,63116,US
"Viper, egyptian",82 Evergreen Drive,,Charlottesville,VA,22908,US
Arctic tern,356 Dixon Pass,,Louisville,KY,40205,US
"Sloth, pale-throated three-toed",56537 Dryden Pass,,Tucson,AZ,85743,US
"Squirrel, uinta ground",8127 Karstens Junction,9 Grasskamp Parkway,Los Angeles,CA,90010,US
"Oystercatcher, blackish",5 Darwin Way,838 Manitowish Plaza,Iowa City,IA,52245,US
Openbill stork,3276 Messerschmidt Terrace,2146 Mifflin Pass,Saginaw,MI,48609,US
"Falcon, peregrine",141 Manitowish Street,,Washington,DC,20268,US
,8 Dapin Point,8 Arizona Road,Dallas,TX,75323,US
,590 Onsgard Court,,Lexington,KY,40524,US
"Boa, malagasy ground",26 Beilfuss Drive,,Houston,TX,77060,US
"Tamandua, southern",2 Beilfuss Point,,Tulsa,OK,74103,US
"Lark, horned",26 Hermina Pass,51 Del Sol Road,Scottsdale,AZ,85255,US
"Drongo, fork-tailed",8275 Starling Court,,Buffalo,NY,14220,US
,10211 Melody Trail,40 Merry Drive,Arlington,VA,22244,US
Pine snake (unidentified),8630 Jenna Pass,,Philadelphia,PA,19196,US
Springbuck,0419 Loomis Avenue,65327 Hoepker Crossing,Marietta,GA,30066,US
"Skunk, striped",49607 Shasta Pass,,Charlotte,NC,28263,US
"Plover, three-banded",3592 Evergreen Hill,,Indianapolis,IN,46247,US
Common eland,77731 Crownhardt Center,69751 Goodland Way,Charleston,WV,25331,US
Gecko (unidentified),12 Westridge Center,2 Almo Pass,El Paso,TX,79977,US
Pine snake (unidentified),09740 Derek Junction,,Fort Worth,TX,76105,US
,1 New Castle Plaza,,Gaithersburg,MD,20883,US
Collared lizard,1316 Annamark Parkway,,Fresno,CA,93721,US
"Kiskadee, great",72103 Reinke Place,,Columbia,SC,29240,US
"Heron, black-crowned night",2420 Algoma Hill,,Irvine,CA,92710,US
Openbill stork,4970 Shasta Court,60 Green Ridge Trail,Houston,TX,77040,US
Suricate,6342 Heffernan Street,5872 Londonderry Park,Wichita,KS,67236,US
"Tortoise, burmese black mountain",36 Melby Trail,86 Brentwood Road,Denver,CO,80262,US
Southern right whale,0 Norway Maple Alley,,Modesto,CA,95397,US
"Crane, stanley",00305 Lakeland Hill,5 Park Meadow Circle,Saint Cloud,MN,56398,US
Eurasian beaver,41313 Union Lane,,Nashville,TN,37210,US
Sun gazer,16776 Manufacturers Place,,El Paso,TX,79905,US
"Lorikeet, scaly-breasted",01 Derek Way,17 Maple Street,Dallas,TX,75392,US
"Booby, blue-faced",89 Meadow Vale Terrace,93 Sutherland Alley,San Jose,CA,95128,US
Columbian rainbow boa,0993 Prentice Place,191 Straubel Drive,Hollywood,FL,33023,US
Stone sheep,81900 8th Way,,Washington,DC,20057,US
Bare-faced go away bird,3 Spohn Trail,,Henderson,NV,89012,US
"Coatimundi, ring-tailed",24 Gulseth Crossing,,Winston Salem,NC,27110,US
Cape clawless otter,29548 Rockefeller Hill,,El Paso,TX,88541,US
Laughing kookaburra,6 Longview Circle,,Sioux City,IA,51110,US
"Porcupine, african",68 Nova Parkway,,Greenville,SC,29615,US
,96 Schurz Alley,,Longview,TX,75605,US
,0250 Raven Crossing,,Boston,MA,02283,US
Flying fox (unidentified),46 Goodland Lane,,Littleton,CO,80161,US
Red-winged blackbird,9420 Mallard Park,33 Monterey Street,Miami,FL,33196,US
"Monitor, water",16 Prairieview Point,,Flushing,NY,11388,US
"Nutcracker, clark's",396 Gulseth Alley,,Kansas City,MO,,US
Lava gull,40 Maryland Way,,Arlington,VA,22205,US
"Pelican, great white",5 Oakridge Lane,,Evansville,IN,47737,US
,78938 Daystar Parkway,2 Fallview Way,Fort Worth,TX,76178,US
"Gull, dusky",10999 Swallow Court,,Tucson,AZ,85725,US
"Falcon, prairie",23965 Straubel Trail,,Rochester,NY,14624,US
Southern white-crowned shrike,545 Melvin Circle,,Memphis,TN,38181,US
"Wallaby, bennett's",2255 Debs Lane,,Trenton,NJ,08650,US
"Starling, greater blue-eared",2055 Brickson Park Trail,,Amarillo,TX,79176,US
Levaillant's barbet,9 Eliot Road,,Atlanta,GA,31165,US
White-throated kingfisher,7742 Hazelcrest Court,,Anchorage,AK,99599,US
"Porcupine, north american",60 Manitowish Hill,468 Starling Street,Shreveport,LA,71166,US
"Peccary, collared",07737 Independence Pass,,Newton,MA,02162,US
"Cat, jungle",208 Rusk Park,,Lincoln,NE,68524,US
"Owl, australian masked",01 Loeprich Park,911 Artisan Parkway,Waltham,MA,02453,US
Large cormorant,12267 Glacier Hill Court,3 Forest Court,Arlington,VA,22205,US
"Kangaroo, brush-tailed rat",78 Mayer Drive,,Washington,DC,20099,US
"Bleu, blue-breasted cordon",49 Oakridge Junction,30 Darwin Way,Mobile,AL,36622,US
Sportive lemur,17 Lake View Place,77 Badeau Park,Baltimore,MD,21265,US
,44 Eastwood Park,75 Towne Lane,Los Angeles,CA,90035,US
Collared peccary,875 Maple Junction,06787 Pierstorff Way,Louisville,KY,40205,US
"Kangaroo, western grey",6 Summit Crossing,,Memphis,TN,38188,US
Pacific gull,8591 Melody Court,105 Comanche Park,San Jose,CA,95133,US
Emu,4 Commercial Point,0506 Independence Center,Miami,FL,33153,US
Emerald green tree boa,2627 Dottie Park,,Evansville,IN,47737,US
"Tortoise, indian star",639 Michigan Hill,02 Vahlen Point,Indianapolis,IN,46239,US
House crow,681 Toban Pass,,Lake Charles,LA,70607,US
White-mantled colobus,0714 Summer Ridge Circle,,Los Angeles,CA,90087,US
"Vulture, black",34 Orin Alley,,Allentown,PA,,US
"Kingfisher, malachite",0142 Portage Road,0813 Nobel Parkway,Alhambra,CA,91841,US
"Barbet, levaillant's",798 Mendota Avenue,,Asheville,NC,28805,US
Tsessebe,501 7th Alley,,Sacramento,CA,95894,US
"Tortoise, radiated",5862 Tomscot Parkway,,Lexington,KY,40596,US
,0739 Mayer Point,,Battle Creek,MI,,US
Grey mouse lemur,5245 John Wall Plaza,009 Fairview Lane,Rochester,NY,,US
,81 5th Drive,,Cleveland,OH,44197,US
White-faced whistling duck,200 Gale Pass,,Colorado Springs,CO,80915,US
Small-spotted genet,54 Meadow Vale Plaza,,New York City,NY,10115,US
"Thrasher, curve-billed",683 Glacier Hill Way,,Everett,WA,98206,US
European shelduck,83 Ronald Regan Terrace,,Sparks,NV,89436,US
Brush-tailed bettong,79 Tennyson Avenue,,Orlando,FL,32830,US
"Otter, giant",44035 Stoughton Hill,5501 Nevada Avenue,Miami,FL,,US
Anaconda (unidentified),785 Doe Crossing Court,,Wilmington,DE,19805,US
"Iguana, marine",84 Knutson Plaza,,Columbus,OH,43284,US
"Whale, southern right",56065 Farragut Terrace,,San Antonio,TX,78285,US
"Opossum, american virginia",660 Melrose Pass,,Palatine,IL,60078,US
"Brocket, red",2 Atwood Pass,73 Kensington Alley,Albany,NY,12205,US
Asian foreset tortoise,0751 Sutherland Way,58656 Bunting Junction,Philadelphia,PA,19104,US
"Baboon, gelada",82355 Burning Wood Trail,,Tacoma,WA,98424,US
Rufous tree pie,93038 Delaware Plaza,,West Palm Beach,FL,33411,US
"Falcon, peregrine",1 Golf View Avenue,3652 Del Sol Terrace,Austin,TX,78703,US
"Capuchin, weeper",4 Eastlawn Street,,Beaumont,TX,77713,US
,50377 Menomonie Hill,,Jefferson City,MO,65110,US
"Bettong, brush-tailed",6475 Moose Terrace,,Colorado Springs,CO,80951,US
Pallas's fish eagle,565 Cordelia Center,,Omaha,NE,68197,US
"Goose, greylag",07259 Haas Trail,,Las Vegas,NV,,US
"Dragon, komodo",33 Ohio Way,,Paterson,NJ,07522,US
Cape white-eye,86 Basil Pass,,Birmingham,AL,35225,US
"Deer, white-tailed",84152 Lake View Avenue,5 Mccormick Lane,Fort Worth,TX,76162,US
"Siskin, yellow-rumped",92 Dakota Circle,298 Springview Parkway,El Paso,TX,88574,US
"Bettong, brush-tailed",91645 Shelley Avenue,,North Little Rock,AR,72118,US
Red-billed buffalo weaver,27218 Mcguire Crossing,28 Kennedy Crossing,Corona,CA,92883,US
"Otter, brazilian",1 Park Meadow Road,,Gilbert,AZ,85297,US
Giant heron,839 Reinke Pass,,Kissimmee,FL,34745,US
Desert spiny lizard,82068 5th Point,,Panama City,FL,32405,US
Indian tree pie,32461 Oak Valley Alley,949 Esker Alley,Birmingham,AL,35210,US
Blacksmith plover,51 Miller Place,078 Sommers Terrace,Brooklyn,NY,11231,US
Aardwolf,6686 Dayton Terrace,,San Antonio,TX,78291,US
Hoffman's sloth,7 Reinke Terrace,,Santa Barbara,CA,93111,US
North American porcupine,62134 Macpherson Park,,Austin,TX,78721,US
Sloth bear,746 Westport Circle,,Brooklyn,NY,11225,US
"Opossum, american virginia",5 Basil Drive,,Van Nuys,CA,91499,US
"Kiskadee, great",45 Browning Plaza,,Springfield,IL,62756,US
Northern elephant seal,5 Corben Plaza,,Fresno,CA,93715,US
Little heron,07751 Welch Hill,,Anaheim,CA,92805,US
Water moccasin,48 Barby Alley,,Washington,DC,20231,US
"Gorilla, western lowland",01 Bartillon Crossing,,Charlotte,NC,28289,US
Gambel's quail,288 Loomis Place,2283 Eastlawn Point,Washington,DC,20299,US
North American porcupine,983 Trailsway Circle,,Pompano Beach,FL,33075,US
,0611 Commercial Trail,,Fort Worth,TX,76198,US
Southern boubou,0139 Carpenter Park,31172 Sherman Trail,Fort Wayne,IN,46814,US
"Bear, sloth",07091 Stuart Way,22088 Cherokee Hill,Louisville,KY,,US
"Hoopoe, eurasian",4241 Merry Road,,Marietta,GA,30066,US
"Bird, black-throated butcher",2 Chinook Street,,Fresno,CA,93726,US
Galapagos mockingbird,4655 Nelson Street,412 Gateway Place,Saint Petersburg,FL,,US
Great kiskadee,51843 Nova Avenue,,El Paso,TX,,US
"Owl, white-browed",3674 Burrows Court,,Las Cruces,NM,,US
Great horned owl,01828 Bayside Place,,Indianapolis,IN,46266,US
"Gull, kelp",81 Bonner Terrace,,Atlanta,GA,30351,US
Mountain duck,2 Dixon Park,,Norfolk,VA,23509,US
,56 Coolidge Lane,,Charleston,WV,,US
"Macaw, red and blue",67 Vidon Plaza,14323 Kinsman Court,Columbus,OH,43204,US
Puku,65 Debs Hill,,Columbus,OH,43231,US
"Ringtail, common",4858 Summit Point,03530 Forest Drive,Cedar Rapids,IA,52405,US
"Avocet, pied",91 Namekagon Street,,Jamaica,NY,11436,US
"Pigeon, wood",5628 Ryan Trail,3 Prairie Rose Place,San Diego,CA,92186,US
Asian false vampire bat,2 Welch Crossing,00741 Oxford Court,Cleveland,OH,44118,US
Blue-tongued skink,41 Little Fleur Pass,,Charleston,SC,29416,US
"Cormorant, large",2427 International Trail,,Scottsdale,AZ,85260,US
"Stork, openbill",121 Warrior Center,,Anchorage,AK,99512,US
Scarlet macaw,9 Grover Terrace,,Simi Valley,CA,93094,US
Black rhinoceros,5793 Meadow Ridge Alley,,Delray Beach,FL,33448,US
"Deer, barasingha",8 Marcy Court,,Erie,PA,16534,US
"Jackal, indian",0488 Manufacturers Drive,900 Corscot Circle,New Hyde Park,NY,11044,US
Roan antelope,180 Larry Pass,2 Mallory Avenue,New York City,NY,,US
"Duck, white-faced whistling",3 Nobel Hill,016 Debs Plaza,Grand Rapids,MI,49544,US
Barking gecko,1 Memorial Trail,445 Sundown Place,Detroit,MI,48211,US
"Iguana, common green",199 Troy Lane,,Jacksonville,FL,,US
Cattle egret,3416 Sunnyside Court,,Tucson,AZ,85715,US
"Woodpecker, red-headed",078 Jana Avenue,,Birmingham,AL,35205,US
Silver-backed jackal,2 Mcbride Circle,,Las Vegas,NV,89155,US
Cheetah,71 Fairfield Circle,,Virginia Beach,VA,23454,US
,2882 Birchwood Parkway,,San Diego,CA,92121,US
Rainbow lory,268 Welch Plaza,,Winter Haven,FL,33884,US
Mourning collared dove,200 Cardinal Pass,,Durham,NC,27710,US
Pine squirrel,0848 Moulton Terrace,,Flint,MI,48555,US
Rhesus macaque,79 Hagan Center,,Shawnee Mission,KS,66276,US
"Rhea, gray",67 Hermina Pass,,Camden,NJ,08104,US
Violet-crested turaco,6 Lukken Park,123 Sachtjen Court,Fairfax,VA,22036,US
